SENTINEL-6              
1 46984U 20086A   24253.63171962 -.00000048  00000+0  55508-4 0  9997
2 46984  66.0434  35.8764 0007801 269.2198  90.7924 12.80931417177644
